NORAD_CAT_ID,OBJECT_NAME,OBJECT_TYPE,EPOCH,MEAN_MOTION,ECCENTRICITY,INCLINATION,RA_OF_ASC_NODE,ARG_OF_PERICENTER,MEAN_ANOMALY,BSTAR,MEAN_MOTION_DOT,MEAN_MOTION_DDOT,TLE_LINE0,TLE_LINE1,TLE_LINE2,SEMIMAJOR_AXIS,PERIOD,APOGEE,PERIGEE,DECAYED
55430.0,STARLINK-5642,PAYLOAD,2023-07-30 18:40:05,14.9833417,0.0003485,70.0007,347.0065,272.2895,87.7865,2.4105e-05,1.95e-06,0.0,0 STARLINK-5642,1 55430U 23014AR  23211.77784708  .00000195  00000-0  24105-4 0  9995,2 55430  70.0007 347.0065 0003485 272.2895  87.7865 14.98334170 27395,6950.18,96.107,574.467,569.623,0.0
55430.0,STARLINK-5642,PAYLOAD,2023-07-31 10:41:26,14.9832814,0.0003449,70.0009,345.3232,269.7373,90.339,-3.6205e-07,-9.7e-07,0.0,0 STARLINK-5642,1 55430U 23014AR  23212.44545107 -.00000097  00000-0 -36205-6 0  9997,2 55430  70.0009 345.3232 0003449 269.7373  90.3390 14.98328140 27490,6950.199,96.107,574.461,569.667,0.0
55430.0,STARLINK-5642,PAYLOAD,2023-07-31 18:42:06,14.98333963,0.0003315,70.001,344.4816,267.3509,92.7271,4.305e-05,4.21e-06,0.0,0 STARLINK-5642,1 55430U 23014AR  23212.77924595  .00000421  00000-0  43050-4 0  9998,2 55430  70.0010 344.4816 0003315 267.3509  92.7271 14.98333963 27546,6950.181,96.107,574.35,569.742,0.0
55430.0,STARLINK-5642,PAYLOAD,2023-08-01 10:43:28,14.98321998,0.0003418,70.0011,342.7987,267.7228,92.354,-2.2119e-05,-3.57e-06,0.0,0 STARLINK-5642,1 55430U 23014AR  23213.44685534 -.00000357  00000-0 -22119-4 0  9993,2 55430  70.0011 342.7987 0003418 267.7228  92.3540 14.98321998 27644,6950.218,96.108,574.458,569.707,0.0
55430.0,STARLINK-5642,PAYLOAD,2023-08-01 18:44:08,14.98329782,0.0003322,70.0013,341.9572,268.2294,91.8484,-1.4615e-05,-2.67e-06,0.0,0 STARLINK-5642,1 55430U 23014AR  23213.78065132 -.00000267  00000-0 -14615-4 0  9998,2 55430  70.0013 341.9572 0003322 268.2294  91.8484 14.98329782 27695,6950.194,96.107,574.367,569.75,0.0
55430.0,STARLINK-5642,PAYLOAD,2023-08-02 18:46:08,14.98336298,0.0003165,70.0017,339.4331,265.3304,94.7493,5.9765e-05,6.2e-06,0.0,0 STARLINK-5642,1 55430U 23014AR  23214.78204407  .00000620  00000-0  59765-4 0  9995,2 55430  70.0017 339.4331 0003165 265.3304  94.7493 14.98336298 27848,6950.173,96.107,574.238,569.839,0.0
55430.0,STARLINK-5642,PAYLOAD,2023-08-03 10:47:29,14.98329619,0.0003178,70.0017,337.7496,267.5799,92.4996,3.7119e-05,3.5e-06,0.0,0 STARLINK-5642,1 55430U 23014AR  23215.44964782  .00000350  00000-0  37119-4 0  9997,2 55430  70.0017 337.7496 0003178 267.5799  92.4996 14.98329619 27940,6950.194,96.107,574.268,569.85,0.0
55430.0,STARLINK-5642,PAYLOAD,2023-08-04 10:49:30,14.98326175,0.0003075,70.002,335.2254,265.4572,94.6235,-8.5663e-05,-1.115e-05,0.0,0 STARLINK-5642,1 55430U 23014AR  23216.45105298 -.00001115  00000-0 -85663-4 0  9997,2 55430  70.0020 335.2254 0003075 265.4572  94.6235 14.98326175 28092,6950.205,96.107,574.207,569.933,0.0
55430.0,STARLINK-5642,PAYLOAD,2023-08-04 17:14:02,14.98340203,0.0003104,70.0018,334.5524,265.3692,94.7112,-0.00029282,-3.586e-05,0.0,0 STARLINK-5642,1 55430U 23014AR  23216.71808902 -.00003586  00000-0 -29282-3 0  9996,2 55430  70.0018 334.5524 0003104 265.3692  94.7112 14.98340203 28134,6950.161,96.106,574.184,569.869,0.0
55430.0,STARLINK-5642,PAYLOAD,2023-08-05 17:16:02,14.9834363,0.0003089,70.0017,332.0268,261.3192,98.7618,0.00013995,1.578e-05,0.0,0 STARLINK-5642,1 55430U 23014AR  23217.71947246  .00001578  00000-0  13995-3 0  9993,2 55430  70.0017 332.0268 0003089 261.3192  98.7618 14.98343630 28282,6950.151,96.106,574.163,569.869,0.0
55430.0,STARLINK-5642,PAYLOAD,2023-08-06 01:16:43,14.98329493,0.0002707,70.0032,331.1871,278.1222,81.963,1.6949e-05,1.09e-06,0.0,0 STARLINK-5642,1 55430U 23014AR  23218.05328572  .00000109  00000-0  16949-4 0  9998,2 55430  70.0032 331.1871 0002707 278.1222  81.9630 14.98329493 28330,6950.194,96.107,573.941,570.178,0.0
55430.0,STARLINK-5642,PAYLOAD,2023-08-06 10:53:34,14.98306352,0.0003385,70.0007,330.174,272.3062,87.771,-0.00018509,-2.299e-05,0.0,0 STARLINK-5642,1 55430U 23014AR  23218.45386658 -.00002299  00000-0 -18509-3 0  9998,2 55430  70.0007 330.1740 0003385 272.3062  87.7710 14.98306352 28395,6950.266,96.109,574.484,569.778,0.0
55430.0,STARLINK-5642,PAYLOAD,2023-08-07 09:19:26,14.98325197,0.000342,70.001,327.8178,271.2186,88.8581,-0.0001857,-2.308e-05,0.0,0 STARLINK-5642,1 55430U 23014AR  23219.38850407 -.00002308  00000-0 -18570-3 0  9998,2 55430  70.0010 327.8178 0003420 271.2186  88.8581 14.98325197 28534,6950.208,96.107,574.45,569.696,0.0
55430.0,STARLINK-5642,PAYLOAD,2023-08-07 17:20:06,14.9832996,0.0003492,70.0008,326.9762,272.8985,87.1774,-9.8367e-05,-1.267e-05,0.0,0 STARLINK-5642,1 55430U 23014AR  23219.72229989 -.00001267  00000-0 -98367-4 0  9997,2 55430  70.0008 326.9762 0003492 272.8985  87.1774 14.98329960 28586,6950.193,96.107,574.485,569.631,0.0
55430.0,STARLINK-5642,PAYLOAD,2023-08-08 14:09:50,14.98334569,0.0003615,70.0005,324.7885,273.2109,86.8637,0.00026909,3.12e-05,0.0,0 STARLINK-5642,1 55430U 23014AR  23220.59016865  .00003120  00000-0  26909-3 0  9991,2 55430  70.0005 324.7885 0003615 273.2109  86.8637 14.98334569 28715,6950.179,96.107,574.556,569.531,0.0
55430.0,STARLINK-5642,PAYLOAD,2023-08-09 14:11:51,14.98332566,0.0003256,70.0012,322.2642,268.8728,91.2058,8.796e-05,9.57e-06,0.0,0 STARLINK-5642,1 55430U 23014AR  23221.59157384  .00000957  00000-0  87960-4 0  9994,2 55430  70.0012 322.2642 0003256 268.8728  91.2058 14.98332566 28863,6950.185,96.107,574.313,569.787,0.0
55430.0,STARLINK-5642,PAYLOAD,2023-08-09 15:47:59,14.98344202,0.0003105,70.0013,322.096,270.2373,89.8431,-9.4863e-05,-1.225e-05,0.0,0 STARLINK-5642,1 55430U 23014AR  23221.65833102 -.00001225  00000-0 -94863-4 0  9991,2 55430  70.0013 322.0960 0003105 270.2373  89.8431 14.98344202 28870,6950.149,96.106,574.172,569.856,0.0
55430.0,STARLINK-5642,PAYLOAD,2023-08-10 09:25:28,14.9833769,0.0003351,70.0013,320.2448,267.1619,92.9156,-0.00011325,-1.444e-05,0.0,0 STARLINK-5642,1 55430U 23014AR  23222.39269205 -.00001444  00000-0 -11325-3 0  9994,2 55430  70.0013 320.2448 0003351 267.1619  92.9156 14.98337690 28986,6950.169,96.107,574.363,569.705,0.0
55430.0,STARLINK-5642,PAYLOAD,2023-08-10 17:26:08,14.98342878,0.0003259,70.001,319.4024,266.3221,93.7565,-4.6895e-05,-6.53e-06,0.0,0 STARLINK-5642,1 55430U 23014AR  23222.72648490 -.00000653  00000-0 -46895-4 0  9990,2 55430  70.0010 319.4024 0003259 266.3221  93.7565 14.98342878 29034,6950.153,96.106,574.283,569.753,0.0
55430.0,STARLINK-5642,PAYLOAD,2023-08-11 11:03:37,14.98324036,0.0003558,70.0006,317.5506,271.1639,88.9112,0.00014586,1.648e-05,0.0,0 STARLINK-5642,1 55430U 23014AR  23223.46084876  .00001648  00000-0  14586-3 0  9998,2 55430  70.0006 317.5506 0003558 271.1639  88.9112 14.98324036 29144,6950.211,96.107,574.549,569.603,0.0
55430.0,STARLINK-5642,PAYLOAD,2023-08-11 15:52:01,14.98336568,0.0003488,70.0009,317.0459,269.6818,90.3941,3.3433e-06,-5.3e-07,0.0,0 STARLINK-5642,1 55430U 23014AR  23223.66112305 -.00000053  00000-0  33433-5 0  9993,2 55430  70.0009 317.0459 0003488 269.6818  90.3941 14.98336568 29175,6950.173,96.107,574.462,569.613,0.0
55430.0,STARLINK-5642,PAYLOAD,2023-08-12 11:05:38,14.98330087,0.0003603,70.0007,315.0261,269.6197,90.455,-2.9027e-05,-4.39e-06,0.0,0 STARLINK-5642,1 55430U 23014AR  23224.46224648 -.00000439  00000-0 -29027-4 0  9998,2 55430  70.0007 315.0261 0003603 269.6197  90.4550 14.98330087 29291,6950.193,96.107,574.562,569.553,0.0
55430.0,STARLINK-5642,PAYLOAD,2023-08-13 15:56:03,14.98330174,0.0003352,70.001,311.9955,262.055,98.0229,7.9283e-06,2e-08,0.0,0 STARLINK-5642,1 55430U 23014AR  23225.66392432  .00000002  00000-0  79283-5 0  9992,2 55430  70.0010 311.9955 0003352 262.0550  98.0229 14.98330174 29475,6950.192,96.107,574.387,569.728,0.0
55430.0,STARLINK-5642,PAYLOAD,2023-08-14 22:22:36,14.98332069,0.0003716,70.0005,308.7982,268.9479,91.1254,4.7856e-05,4.78e-06,0.0,0 STARLINK-5642,1 55430U 23014AR  23226.93236117  .00000478  00000-0  47856-4 0  9997,2 55430  70.0005 308.7982 0003716 268.9479  91.1254 14.98332069 29660,6950.186,96.107,574.634,569.469,0.0
55430.0,STARLINK-5642,PAYLOAD,2023-08-15 22:24:36,14.98333779,0.0003584,70.0006,306.2739,268.7948,91.2801,1.4648e-05,8.2e-07,0.0,0 STARLINK-5642,1 55430U 23014AR  23227.93376032  .00000082  00000-0  14648-4 0  9993,2 55430  70.0006 306.2739 0003584 268.7948  91.2801 14.98333779 29811,6950.181,96.107,574.537,569.555,0.0
55430.0,STARLINK-5642,PAYLOAD,2023-08-16 09:37:33,14.98327146,0.0003471,70.0008,305.096,267.5332,92.5429,-5.4131e-06,-1.58e-06,0.0,0 STARLINK-5642,1 55430U 23014AR  23228.40108504 -.00000158  00000-0 -54131-5 0  9991,2 55430  70.0008 305.0960 0003471 267.5332  92.5429 14.98327146 29883,6950.202,96.107,574.479,569.654,0.0
55430.0,STARLINK-5642,PAYLOAD,2023-08-17 00:02:45,14.983601,0.0003817,70.0002,303.581,269.4621,90.61,-0.00048082,-5.83e-05,0.0,0 STARLINK-5642,1 55430U 23014AR  23229.00191897 -.00005830  00000-0 -48082-3 0  9993,2 55430  70.0002 303.5810 0003817 269.4621  90.6100 14.98360100 29972,6950.1,96.105,574.618,569.312,0.0
55430.0,STARLINK-5642,PAYLOAD,2023-08-17 09:39:34,14.98329846,0.0003563,70.0002,302.5711,270.5627,89.5123,-2.6343e-05,-4.07e-06,0.0,0 STARLINK-5642,1 55430U 23014AR  23229.40248335 -.00000407  00000-0 -26343-4 0  9999,2 55430  70.0002 302.5711 0003563 270.5627  89.5123 14.98329846 30031,6950.193,96.107,574.535,569.582,0.0
55430.0,STARLINK-5642,PAYLOAD,2023-08-18 09:41:35,14.98325493,0.0003701,69.9995,300.0444,269.9486,90.1249,2.5848e-05,2.15e-06,0.0,0 STARLINK-5642,1 55430U 23014AR  23230.40388438  .00000215  00000-0  25848-4 0  9994,2 55430  69.9995 300.0444 0003701 269.9486  90.1249 14.98325493 30181,6950.207,96.107,574.644,569.5,0.0
55430.0,STARLINK-5642,PAYLOAD,2023-08-19 09:43:36,14.98330356,0.0003689,69.9995,297.5199,269.3497,90.7239,7.4443e-05,7.95e-06,0.0,0 STARLINK-5642,1 55430U 23014AR  23231.40527965  .00000795  00000-0  74443-4 0  9993,2 55430  69.9995 297.5199 0003689 269.3497  90.7239 14.98330356 30335,6950.192,96.107,574.621,569.493,0.0
